1 45732U 20038C   23165.05518672  .00022388  00000+0  15159-2 0  9990
2 45732  53.0546  44.1487 0001360  87.3385 272.7759 15.06429843165528
STARLINK-1467           
1 45733U 20038D   23165.03145573  .00008634  00000+0  39458-3 0  9992
2 45733  53.0565  29.2666 0005337  58.1873 301.9642 15.21340713165733
STARLINK-1468           
1 45734U 20038E   23165.07044073  .00044105  00000+0  22590-2 0  9991
2 45734  53.0560  34.6407 0001365 114.6538 245.4597 15.16188154165661
STARLINK-1471           
1 45735U 20038F   23164.94829534  .00018656  00000+0  12672-2 0  9992
2 45735  53.0553  44.6303 0000827  81.5214 278.5868 15.06423227165508
STARLINK-1472           
1 45736U 20038G   23165.40088582  .00038856  00000+0  52111-3 0  9992
2 45736  53.0547 275.3801 0002330  47.4889 312.6318 15.57594411167386
STARLINK-1474           
1 45738U 20038J   23164.93723514  .00023028  00000+0  15588-2 0  9993
2 45738  53.0555  44.6775 0001259  82.6078 277.5054 15.06424572165506
STARLINK-1475           
1 45739U 20038K   23165.54815728  .00001046  00000+0  89141-4 0  9995
2 45739  53.0553   1.9292 0001646  76.5960 283.5212 15.06398013166152
STARLINK-1479           
1 45740U 20038L   23165.47538651  .00023325  00000+0  15790-2 0  9997
2 45740  53.0552  42.2659 0000724  29.5253 330.5777 15.06414274165580
STARLINK-1480           
1 45741U 20038M   23165.04781369  .00021609  00000+0  14640-2 0  9993
2 45741  53.0547  44.1907 0001333  91.7805 268.3337 15.06428105165536
STARLINK-1481           
1 45742U 20038N   23165.10677912  .00020637  00000+0  13988-2 0  9993
2 45742  53.0550  43.9227 0000813  81.3464 278.7617 15.06439047165523
STARLINK-1483           
1 45743U 20038P   23164.92522586  .00021672  00000+0  14682-2 0  9991
2 45743  53.0551  44.6596 0001142  95.5339 264.5781 15.06428156166475
STARLINK-1500           
1 45744U 20038Q   23164.96303828  .00016833  00000+0  11457-2 0  9992
2 45744  53.0554  44.5638 0001158  88.8809 271.2312 15.06417466165510
STARLINK-1503           
1 45745U 20038R   23164.95197567  .00022181  00000+0  15022-2 0  9998
2 45745  53.0557  44.6127 0001016  88.5807 271.5299 15.06426542165507
STARLINK-1504           
1 45746U 20038S   23165.09941965  .00021262  00000+0  14409-2 0  9991
2 45746  53.0557  43.9546 0001118  86.6157 273.4960 15.06428336165526
STARLINK-1506           
1 45747U 20038T   23165.03676040  .00019603  00000+0  13306-2 0  9996
2 45747  53.0554  44.2336 0000913  77.6865 282.4227 15.06419020165529
STARLINK-1507           
1 45748U 20038U   23165.02474849  .00019551  00000+0  13266-2 0  9996
2 45748  53.0550  44.2875 0000750 108.4501 251.6570 15.06432615165516
STARLINK-1391           
1 45750U 20038W   23165.58411954  .00004650  00000+0  33081-3 0  9990
2 45750  53.0533  21.7845 0001462  85.4859 274.6297 15.06404780165892
STARLINK-1464           
1 45751U 20038X   23165.58043434  .00006698  00000+0  46814-3 0  9997
2 45751  53.0561  21.7926 0001630  98.5694 261.5480 15.06397513165897
STARLINK-1476           
1 45753U 20038Z   23165.59149464  .00010399  00000+0  71612-3 0  9997
2 45753  53.0548  21.7477 0001098 109.1387 250.9721 15.06392817165893
STARLINK-1477           
1 45754U 20038AA  23164.99805157  .00017206  00000+0  11704-2 0  9998
2 45754  53.0540  24.4083 0000998  96.5735 263.5367 15.06423483165804
STARLINK-1478           
1 45755U 20038AB  23165.41455588  .00013892  00000+0  94972-3 0  9992
2 45755  53.0523  22.5450 0002901  88.0792 272.0529 15.06396184165855
STARLINK-1484           
1 45756U 20038AC  23165.60897764  .00002372  00000+0  17807-3 0  9993
2 45756  53.0549  21.6537 0001066  63.8409 296.2690 15.06396806165888
STARLINK-1486           
1 45757U 20038AD  23165.01538646  .00034094  00000+0  17368-2 0  9997
2 45757  53.0562  18.6031 0004382 100.6084 259.5403 15.16494296165878
STARLINK-1487           
1 45758U 20038AE  23165.58809273  .00030061  00000+0  14837-2 0  9995
2 45758  53.0565  15.1759 0004131 120.0587 240.0817 15.17665969165970
STARLINK-1493           
1 45759U 20038AF  23165.60255188  .00006548  00000+0  45807-3 0  9994
2 45759  53.0538  21.6943 0001391  61.8226 298.2904 15.06401689165882
STARLINK-1494           
1 45760U 20038AG  23165.60623575  .00011307  00000+0  77687-3 0  9995
2 45760  53.0550  21.6815 0001437  84.5093 275.6059 15.06394630165899
STARLINK-1499           
1 45762U 20038AJ  23165.57357846  .00007680  00000+0  35251-3 0  9998
2 45762  53.0610   2.3096 0002994  45.9253 314.1988 15.21355906166175
STARLINK-1502           
1 45764U 20038AL  23165.03859416  .00021055  00000+0  14270-2 0  9990
2 45764  53.0557  24.2238 0001037  84.5062 275.6045 15.06431098165817
STARLINK-1509           
1 45766U 20038AN  23165.03943511  .00009857  00000+0  38978-3 0  9990
2 45766  53.0523  14.5196 0003404 100.4508 259.6873 15.26105904165930
STARLINK-1511           
1 45767U 20038AP  23165.02017026  .00017574  00000+0  11950-2 0  9998
2 45767  53.0562  24.3099 0001510  93.1616 266.9546 15.06423142165796
STARLINK-1521           
1 45768U 20038AQ  23165.39982439  .00008292  00000+0  57479-3 0  9992
2 45768  53.0520  22.6075 0001849  95.4811 264.6389 15.06407691165862
STARLINK-1459           
1 45769U 20038AR  23165.02569308  .00020692  00000+0  14029-2 0  9990
2 45769  53.0560  44.2822 0000928  86.7518 273.3577 15.06427881165523
STARLINK-1462           
1 45770U 20038AS  23165.55921577  .00014019  00000+0  95811-3 0  9995
2 45770  53.0544   1.8924 0001511  79.4896 280.6263 15.06402069166150
STARLINK-1463           
1 45771U 20038AT  23165.55278730  .00009137  00000+0  63164-3 0  9993
2 45771  53.0557   1.9175 0000533  67.0798 293.0247 15.06391687166154
STARLINK-1470           
1 45772U 20038AU  23165.34268927  .00005609  00000+0  39506-3 0  9991
2 45772  53.0553   2.8569 0000633  85.7077 274.3984 15.06405654166134
STARLINK-1482           
1 45773U 20038AV  23165.53436134 -.00015478  00000+0 -10227-2 0  9995
2 45773  53.0528   2.0067 0001346  50.4437 309.6670 15.06391988166164
STARLINK-1485           
1 45774U 20038AW  23165.57122025  .00000094  00000+0  25188-4 0  9991
2 45774  53.0553   1.8333 0001205 109.2547 250.8572 15.06398118166165
STARLINK-1488           
1 45775U 20038AX  23165.52887134  .00008419  00000+0  40504-3 0  9993
2 45775  53.0553 351.7873 0005690  96.0931 264.0712 15.19590174166314
STARLINK-1489           
1 45776U 20038AY  23165.58227468 -.00003560  00000+0 -22031-3 0  9997
2 45776  53.0559   1.7839 0001019 108.0753 252.0347 15.06390501166175
STARLINK-1490           
1 45777U 20038AZ  23165.57703392  .00021926  00000+0  12463-2 0  9993
2 45777  53.0536 358.3038 0003277 157.8951 202.2183 15.12835789166223
STARLINK-1491           
1 45778U 20038BA  23165.56016507  .00016567  00000+0  11275-2 0  9993
2 45778  53.0554   1.8881 0001210  76.1341 283.9782 15.06433365166151
STARLINK-1492           
1 45779U 20038BB  23165.53665977  .00006766  00000+0  31258-3 0  9996
2 45779  53.0596 346.4852 0002646  68.7637 291.3641 15.21327500166374
STARLINK-1496           
1 45780U 20038BC  23165.56753034 -.00005646  00000+0 -36060-3 0  9997
2 45780  53.0546   1.8550 0001057  85.4566 274.6544 15.06386900166154
STARLINK-1497           
1 45781U 20038BD  23165.52698468 -.00001371  00000+0 -73210-4 0  9993
2 45781  53.0548   2.0316 0000915  45.5063 314.6000 15.06397084166158
STARLINK-1498           
1 45782U 20038BE  23165.52723854  .00007195  00000+0  32741-3 0  9993
2 45782  53.0631 346.0825 0005056  97.7638 262.3932 15.21751831166396
STARLINK-1505           
1 45783U 20038BF  23165.32426349  .00003111  00000+0  22767-3 0  9992
2 45783  53.0541   2.9419 0001061  95.8145 264.2965 15.06390428166131
STARLINK-1510           
1 45784U 20038BG  23165.56384177  .00007369  00000+0  51320-3 0  9997
2 45784  53.0549   1.8679 0000353  67.9974 292.1052 15.06391379166165
STARLINK-1512           
1 45785U 20038BH  23165.54541729  .00011029  00000+0  75806-3 0  9997
2 45785  53.0551   1.9481 0001110 101.5477 258.5637 15.06403762166161
STARLINK-1513           
1 45786U 20038BJ  23165.59701838 -.00001493  00000+0 -81421-4 0  9999
2 45786  53.0532   1.7246 0000495  91.9077 268.1969 15.06391140166173
STARLINK-1517           
1 45787U 20038BK  23165.53804684  .00010055  00000+0  69305-3 0  9995
2 45787  53.0546   1.9844 0001356  93.2414 266.8730 15.06393819166167
STARLINK-1522           
1 46027U 20055A   23165.51131782  .00017435  00000+0  11863-2 0  9996
2 46027  53.0533 292.1027 0001104 105.6215 254.4896 15.06404983158281
STARLINK-1523           
1 46028U 20055B   23165.39336765 -.00007560  00000+0 -48928-3 0  9994
2 46028  53.0536 292.6377 0001415 104.1222 255.9924 15.06391168158283
STARLINK-1526           
1 46029U 20055C   23165.45234082 -.00006614  00000+0 -42568-3 0  9994
2 46029  53.0539 292.3716 0001011  99.9079 260.2024 15.06389101158288
STARLINK-1534           
1 46030U 20055D   23165.47078835  .00010443  00000+0  71921-3 0  9998
2 46030  53.0526 292.2826 0001340  61.2184 298.8940 15.06386194157777
STARLINK-1544           
1 46031U 20055E   23165.34082350 -.00003548  00000+0 -21960-3 0  9990
2 46031  53.0529 292.8570 0001139  97.3001 262.8117 15.06371214158255
STARLINK-1555           
1 46032U 20055F   23165.37125592  .00013674  00000+0  93506-3 0  9994
2 46032  53.0543 292.7313 0001106  69.7040 290.4067 15.06402123158273
STARLINK-1556           
1 46033U 20055G   23165.48552736 -.00003871  00000+0 -24126-3 0  9993
2 46033  53.0532 292.2212 0001102  82.0130 278.0984 15.06384715158264
STARLINK-1557           
1 46034U 20055H   23165.35650045  .00005933  00000+0  41668-3 0  9991
2 46034  53.0543 292.7971 0001485 118.9321 241.1817 15.06416983158246
STARLINK-1558           
1 46035U 20055J   23165.49657391  .00017437  00000+0  11868-2 0  9998
2 46035  53.0544 292.1726 0001154  56.4114 303.6985 15.06393507158290
STARLINK-1560           
1 46036U 20055K   23165.48183480  .00007706  00000+0  53591-3 0  9999
2 46036  53.0537 292.2362 0001125  96.1657 263.9460 15.06383079158290
STARLINK-1565           
1 46037U 20055L   23165.47815202  .00007338  00000+0  51099-3 0  9995
